start=new Date('2022-05-18T00:00:00.000Z').valueOf();
sats=[{"SITE":"AFETR","ARG_OF_PERICENTER":"37.9914","EPHEMERIS_TYPE":"0","REF_FRAME":"TEME","REV_AT_EPOCH":"2958","TLE_LINE2":"2 49419  53.2178 357.4083 0002154  37.9914 192.8646 15.08856185 29587","OBJECT_TYPE":"PAYLOAD","EPOCH":"2022-05-17T20:00:01.000224","DECAY_DATE":null,"TLE_LINE1":"1 49419U 21104M   22137.83334491 -.00046506  00000-0 -29215-2 0  9999","APOAPSIS":"541.186","CENTER_NAME":"EARTH","CLASSIFICATION_TYPE":"U","GP_ID":"203792655","OBJECT_NAME":"STARLINK-3120","FILE":"3450443","SEMIMAJOR_AXIS":"6917.831","RA_OF_ASC_NODE":"357.4083","MEAN_ANOMALY":"192.8646","PERIAPSIS":"538.206","MEAN_MOTION":"15.08856185","INCLINATION":"53.2178","TIME_SYSTEM":"UTC","RCS_SIZE":"LARGE","PERIOD":"95.437","NORAD_CAT_ID":"49419","LAUNCH_DATE":"2021-11-13","COUNTRY_CODE":"US","ECCENTRICITY":"0.00021540","MEAN_MOTION_DOT":"-0.00046506","BSTAR":"-0.00292150000000","MEAN_MOTION_DDOT":"0.0000000000000","ELEMENT_SET_NO":"999","MEAN_ELEMENT_THEORY":"SGP4","OBJECT_ID":"2021-104M"},{"TLE_LINE1":"1 49420U 21104N   22137.58335648  .00036907  00000-0  23255-2 0  9998","DECAY_DATE":null,"EPOCH":"2022-05-17T14:00:01.999872","OBJECT_TYPE":"PAYLOAD","TLE_LINE2":"2 49420  53.2165 358.5196 0002141  38.0814 234.1333 15.08830288 29566","REV_AT_EPOCH":"2956","REF_FRAME":"TEME","EPHEMERIS_TYPE":"0","SITE":"AFETR","ARG_OF_PERICENTER":"38.0814","MEAN_MOTION":"15.08830288","MEAN_ANOMALY":"234.1333","PERIAPSIS":"538.294","SEMIMAJOR_AXIS":"6917.910","RA_OF_ASC_NODE":"358.5196","FILE":"3449922","GP_ID":"203756349","OBJECT_NAME":"STARLINK-3110","CLASSIFICATION_TYPE":"U","APOAPSIS":"541.256","CENTER_NAME":"EARTH","TIME_SYSTEM":"UTC","INCLINATION":"53.2165","MEAN_ELEMENT_THEORY":"SGP4","OBJECT_ID":"2021-104N","ELEMENT_SET_NO":"999","MEAN_MOTION_DDOT":"0.0000000000000","BSTAR":"0.00232550000000","MEAN_MOTION_DOT":"0.00036907","ECCENTRICITY":"0.00021410","COUNTRY_CODE":"US","LAUNCH_DATE":"2021-11-13","RCS_SIZE":"LARGE","NORAD_CAT_ID":"49420","PERIOD":"95.438"},{"EPOCH":"2022-05-17T20:00:01.000224","DECAY_DATE":null,"TLE_LINE1":"1 49421U 21104P   22137.83334491 -.00023666  00000-0 -14731-2 0  9991","EPHEMERIS_TYPE":"0","REF_FRAME":"TEME","ARG_OF_PERICENTER":"43.6294","SITE":"AFETR","OBJECT_TYPE":"PAYLOAD","REV_AT_EPOCH":"2958","TLE_LINE2":"2 49421  53.2180 357.4055 0001909  43.6294 227.2281 15.08854658 29585","SEMIMAJOR_AXIS":"6917.836","RA_OF_ASC_NODE":"357.4055","PERIAPSIS":"538.380","MEAN_ANOMALY":"227.2281","MEAN_MOTION":"15.08854658","APOAPSIS":"541.021","CENTER_NAME":"EARTH","CLASSIFICATION_TYPE":"U","GP_ID":"203793920","OBJECT_NAME":"STARLINK-3112","FILE":"3450469","TIME_SYSTEM":"UTC","INCLINATION":"53.2180","BSTAR":"-0.00147310000000","MEAN_MOTION_DDOT":"0.0000000000000","ELEMENT_SET_NO":"999","MEAN_MOTION_DOT":"-0.00023666","MEAN_ELEMENT_THEORY":"SGP4","OBJECT_ID":"2021-104P","COUNTRY_CODE":"US","ECCENTRICITY":"0.00019090","PERIOD":"95.437","RCS_SIZE":"LARGE","NORAD_CAT_ID":"49421","LAUNCH_DATE":"2021-11-13"},{"MEAN_ELEMENT_THEORY":"SGP4","OBJECT_ID":"2021-104Q","ELEMENT_SET_NO":"999","MEAN_MOTION_DDOT":"0.0000000000000","BSTAR":"-0.00234400000000","MEAN_MOTION_DOT":"-0.00037415","ECCENTRICITY":"0.00023720","COUNTRY_CODE":"US","LAUNCH_DATE":"2021-11-13","RCS_SIZE":"LARGE","NORAD_CAT_ID":"49422","PERIOD":"95.437","TIME_SYSTEM":"UTC","INCLINATION":"53.2179","MEAN_MOTION":"15.08853850","MEAN_ANOMALY":"176.8933","PERIAPSIS":"538.062","SEMIMAJOR_AXIS":"6917.838","RA_OF_ASC_NODE":"357.4042","FILE":"3450496","CLASSIFICATION_TYPE":"U","GP_ID":"203793653","OBJECT_NAME":"STARLINK-3161","CENTER_NAME":"EARTH","APOAPSIS":"541.344","TLE_LINE1":"1 49422U 21104Q   22137.83334491 -.00037415  00000-0 -23440-2 0  9996","DECAY_DATE":null,"EPOCH":"2022-05-17T20:00:01.000224","OBJECT_TYPE":"PAYLOAD","TLE_LINE2":"2 49422  53.2179 357.4042 0002372  33.9616 176.8933 15.08853850 29604","REV_AT_EPOCH":"2960","REF_FRAME":"TEME","EPHEMERIS_TYPE":"0","ARG_OF_PERICENTER":"33.9616","SITE":"AFETR"},{"RA_OF_ASC_NODE":"358.5225","SEMIMAJOR_AXIS":"6917.862","PERIAPSIS":"538.086","MEAN_ANOMALY":"355.1341","MEAN_MOTION":"15.08846146","CENTER_NAME":"EARTH","APOAPSIS":"541.368","CLASSIFICATION_TYPE":"U","GP_ID":"203757928","OBJECT_NAME":"STARLINK-3149","FILE":"3449978","EPOCH":"2022-05-17T14:00:01.999872","DECAY_DATE":null,"TLE_LINE1":"1 49423U 21104R   22137.58335648 -.00001352  00000-0 -66813-4 0  9998","EPHEMERIS_TYPE":"0","REF_FRAME":"TEME","SITE":"AFETR","ARG_OF_PERICENTER":"37.0895","OBJECT_TYPE":"PAYLOAD","REV_AT_EPOCH":"2955","TLE_LINE2":"2 49423  53.2200 358.5225 0002372  37.0895 355.1341 15.08846146 29558","MEAN_MOTION_DDOT":"0.0000000000000","BSTAR":"-0.00006681300000","ELEMENT_SET_NO":"999","MEAN_MOTION_DOT":"-0.00001352","OBJECT_ID":"2021-104R","MEAN_ELEMENT_THEORY":"SGP4","COUNTRY_CODE":"US","ECCENTRICITY":"0.00023720","RCS_SIZE":"LARGE","PERIOD":"95.437","NORAD_CAT_ID":"49423","LAUNCH_DATE":"2021-11-13","INCLINATION":"53.2200","TIME_SYSTEM":"UTC"},{"SEMIMAJOR_AXIS":"6917.837","RA_OF_ASC_NODE":"357.4047","MEAN_MOTION":"15.08854080","PERIAPSIS":"538.156","MEAN_ANOMALY":"220.8326","CENTER_NAME":"EARTH","APOAPSIS":"541.249","FILE":"3450496","GP_ID":"203794151","CLASSIFICATION_TYPE":"U","OBJECT_NAME":"STARLINK-3135","DECAY_DATE":null,"EPOCH":"2022-05-17T20:00:01.000224","TLE_LINE1":"1 49424U 21104S   22137.83334491 -.00022339  00000-0 -13892-2 0  9997","SITE":"AFETR","ARG_OF_PERICENTER":"30.0196","REF_FRAME":"TEME","EPHEMERIS_TYPE":"0","TLE_LINE2":"2 49424  53.2177 357.4047 0002236  30.0196 220.8326 15.08854080 29588","REV_AT_EPOCH":"2958","OBJECT_TYPE":"PAYLOAD","MEAN_MOTION_DOT":"-0.00022339","ELEMENT_SET_NO":"999","BSTAR":"-0.00138920000000","MEAN_MOTION_DDOT":"0.0000000000000","OBJECT_ID":"2021-104S","MEAN_ELEMENT_THEORY":"SGP4","LAUNCH_DATE":"2021-11-13","RCS_SIZE":"LARGE","PERIOD":"95.437","NORAD_CAT_ID":"49424","ECCENTRICITY":"0.00022360","COUNTRY_CODE":"US","TIME_SYSTEM":"UTC","INCLINATION":"53.2177"},{"EPOCH":"2022-05-17T14:00:01.999872","DECAY_DATE":null,"TLE_LINE1":"1 49425U 21104T   22137.58335648  .00047029  00000-0  29553-2 0  9997","SITE":"AFETR","ARG_OF_PERICENTER":"45.5345","EPHEMERIS_TYPE":"0","REF_FRAME":"TEME","REV_AT_EPOCH":"130","TLE_LINE2":"2 49425  53.2187 358.5260 0001710  45.5345   6.7179 15.08815996  1302","OBJECT_TYPE":"PAYLOAD","RA_OF_ASC_NODE":"358.5260","SEMIMAJOR_AXIS":"6917.954","MEAN_ANOMALY":"6.7179","PERIAPSIS":"538.636","MEAN_MOTION":"15.08815996","CENTER_NAME":"EARTH","APOAPSIS":"541.002","GP_ID":"203784982","OBJECT_NAME":"STARLINK-3139","CLASSIFICATION_TYPE":"U","FILE":"3450137","TIME_SYSTEM":"UTC","INCLINATION":"53.2187","MEAN_MOTION_DOT":"0.00047029","BSTAR":"0.00295530000000","MEAN_MOTION_DDOT":"0.0000000000000","ELEMENT_SET_NO":"999","OBJECT_ID":"2021-104T","MEAN_ELEMENT_THEORY":"SGP4","RCS_SIZE":"LARGE","PERIOD":"95.439","NORAD_CAT_ID":"49425","LAUNCH_DATE":"2021-11-13","COUNTRY_CODE":"US","ECCENTRICITY":"0.00017100"},{"TIME_SYSTEM":"UTC","INCLINATION":"53.2191","MEAN_ELEMENT_THEORY":"SGP4","OBJECT_ID":"2021-104U","MEAN_MOTION_DDOT":"0.0000000000000","BSTAR":"0.00309300000000","ELEMENT_SET_NO":"999","MEAN_MOTION_DOT":"0.00049245","COUNTRY_CODE":"US","ECCENTRICITY":"0.00019040","RCS_SIZE":"LARGE","PERIOD":"95.439","NORAD_CAT_ID":"49426","LAUNCH_DATE":"2021-11-13","TLE_LINE1":"1 49426U 21104U   22137.58335648  .00049245  00000-0  30930-2 0  9991","EPOCH":"2022-05-17T14:00:01.999872","DECAY_DATE":null,"OBJECT_TYPE":"PAYLOAD","REV_AT_EPOCH":"2955","TLE_LINE2":"2 49426  53.2191 358.5232 0001904  45.6062 326.6612 15.08813212 29551","EPHEMERIS_TYPE":"0","REF_FRAME":"TEME","SITE":"AFETR","ARG_OF_PERICENTER":"45.6062","PERIAPSIS":"538.510","MEAN_ANOMALY":"326.6612","MEAN_MOTION":"15.08813212","SEMIMAJOR_AXIS":"6917.962","RA_OF_ASC_NODE":"358.5232","OBJECT_NAME":"STARLINK-3114","GP_ID":"203758964","CLASSIFICATION_TYPE":"U","FILE":"3450015","APOAPSIS":"541.144","CENTER_NAME":"EARTH"},{"INCLINATION":"53.2195","TIME_SYSTEM":"UTC","MEAN_ELEMENT_THEORY":"SGP4","OBJECT_ID":"2021-104V","ELEMENT_SET_NO":"999","BSTAR":"-0.00312980000000","MEAN_MOTION_DDOT":"0.0000000000000","MEAN_MOTION_DOT":"-0.00049792","ECCENTRICITY":"0.00020700","COUNTRY_CODE":"US","LAUNCH_DATE":"2021-11-13","NORAD_CAT_ID":"49427","RCS_SIZE":"LARGE","PERIOD":"95.436","TLE_LINE1":"1 49427U 21104V   22137.83334491 -.00049792  00000-0 -31298-2 0  9992","DECAY_DATE":null,"EPOCH":"2022-05-17T20:00:01.000224","OBJECT_TYPE":"PAYLOAD","TLE_LINE2":"2 49427  53.2195 357.4038 0002070  38.4612 312.4111 15.08866071 29608","REV_AT_EPOCH":"2960","REF_FRAME":"TEME","EPHEMERIS_TYPE":"0","ARG_OF_PERICENTER":"38.4612","SITE":"AFETR","MEAN_MOTION":"15.08866071","PERIAPSIS":"538.234","MEAN_ANOMALY":"312.4111","SEMIMAJOR_AXIS":"6917.801","RA_OF_ASC_NODE":"357.4038","FILE":"3450493","CLASSIFICATION_TYPE":"U","GP_ID":"203793728","OBJECT_NAME":"STARLINK-3131","APOAPSIS":"541.098","CENTER_NAME":"EARTH"},{"LAUNCH_DATE":"2021-11-13","RCS_SIZE":"LARGE","NORAD_CAT_ID":"49428","PERIOD":"95.437","ECCENTRICITY":"0.00021700","COUNTRY_CODE":"US","OBJECT_ID":"2021-104W","MEAN_ELEMENT_THEORY":"SGP4","MEAN_MOTION_DOT":"0.00001014","ELEMENT_SET_NO":"999","BSTAR":"0.00008181000000","MEAN_MOTION_DDOT":"0.0000000000000","TIME_SYSTEM":"UTC","INCLINATION":"53.2168","FILE":"3450137","OBJECT_NAME":"STARLINK-3121","GP_ID":"203784732","CLASSIFICATION_TYPE":"U","CENTER_NAME":"EARTH","APOAPSIS":"541.243","MEAN_MOTION":"15.08841055","MEAN_ANOMALY":"87.5992","PERIAPSIS":"538.241","RA_OF_ASC_NODE":"358.5392","SEMIMAJOR_AXIS":"6917.877","TLE_LINE2":"2 49428  53.2168 358.5392 0002170  39.4306  87.5992 15.08841055  1305","REV_AT_EPOCH":"130","OBJECT_TYPE":"PAYLOAD","SITE":"AFETR","ARG_OF_PERICENTER":"39.4306","REF_FRAME":"TEME","EPHEMERIS_TYPE":"0","TLE_LINE1":"1 49428U 21104W   22137.58335648  .00001014  00000-0  81810-4 0  9990","DECAY_DATE":null,"EPOCH":"2022-05-17T14:00:01.999872"}];
